GLOBALSTAR M001         
1 25162U 98008A   25100.89686562 -.00000059  00000+0  28878-3 0  9999
2 25162  52.0018 169.0789 0001866 117.1036  57.6358 12.38212167235483
GLOBALSTAR M002         
1 25164U 98008C   25100.86841358 -.00000064  00000+0  24440-3 0  9991
2 25164  52.0034  48.9903 0001688  28.2031 331.8880 11.61508869176242
GLOBALSTAR M003         
1 25165U 98008D   25100.65718410 -.00000080  00000+0  97745-4 0  9998
2 25165  52.0038 355.5502 0008181 153.1067 242.2329 12.12076270225039
GLOBALSTAR M014         
1 25306U 98023A   25100.80331729 -.00000054  00000+0  43085-3 0  9991
2 25306  51.9865 333.8013 0000478 189.8384 249.6011 11.65479218183316
GLOBALSTAR M006         
1 25307U 98023B   25100.71739006 -.00000051  00000+0  51278-3 0  9992
2 25307  51.9978  23.9653 0003452 350.3113  40.7153 11.58173943209010
GLOBALSTAR M015         
1 25308U 98023C   25100.34765852 -.00000036  00000+0  85581-3 0  9997
2 25308  51.9789 120.2493 0012465 314.7767  57.7942 11.48858362186288
